PROBA-1                 
1 26958U 01049B   26200.26138766  .00000489  00000+0  35678-4 0  9996
2 26958  97.9602 209.9170 0055304  16.1904 344.1073 15.07621916348455
CUTE-1 (CO-55)          
1 27844U 03031E   26199.99981041  .00000124  00000+0  72664-4 0  9995
2 27844  98.6744 208.1594 0010865  92.9112 267.3310 14.24352932196203
CUBESAT XI-IV (CO-57)   
1 27848U 03031J   26200.00426191  .00000102  00000+0  63832-4 0  9997
2 27848  98.6776 207.8508 0010644 109.4157 250.8172 14.23635739195908
APRIZESAT 4             
1 35684U 09041D   26200.15188543  .00000304  00000+0  43098-4 0  9999
2 35684  98.1400 276.1081 0042483 216.4052 143.4270 14.83916897916100
APRIZESAT 3             
1 35686U 09041F   26199.99731650  .00000234  00000+0  25930-4 0  9990
2 35686  98.2107 354.7536 0060711 323.2034  36.5025 14.96315666921136
PROBA-2                 
1 36037U 09059B   26200.28977540  .00000069  00000+0  26666-4 0  9998
2 36037  98.2463  23.1994 0013299 176.0300 184.1005 14.54874586886195
APRIZESAT 5             
1 37792U 11044E   26199.75932335  .00000332  00000+0  49354-4 0  9998
2 37792  98.2447 133.6963 0050683 260.9074  98.6400 14.81130594803469
APRIZESAT 6             
1 37793U 11044F   26199.98848558  .00000332  00000+0  54429-4 0  9996
2 37793  98.2332 111.1344 0042741 346.0943  74.9472 14.76959903801847
PROBA-V                 
1 39159U 13021A   26200.16890952  .00000012  00000+0  23484-4 0  9991
2 39159  98.3609 177.2004 0005106  50.6414 309.5217 14.23603743685668
APRIZESAT 7             
1 39416U 13066A   26200.28715707  .00000724  00000+0  76819-4 0  9993
2 39416  97.7723 153.0496 0037312 104.2876 256.2491 14.91624450686018
APRIZESAT 8             
1 39425U 13066K   26200.29188323  .00000362  00000+0  45213-4 0  9994
2 39425  97.8231 147.3153 0045854 178.3521 181.7855 14.87699735684442
BUGSAT-1 (TITA)         
1 40014U 14033E   26200.25153740  .00003068  00000+0  16251-3 0  9991
2 40014  98.0430 294.6835 0029018  72.8064 287.6340 15.15906371660694
SAUDISAT 4              
1 40016U 14033G   26200.24240706  .00000216  00000+0  35382-4 0  9990
2 40016  97.7624 345.2761 0043933 330.7353  29.1398 14.79577789650818
APRIZESAT 9             
1 40018U 14033J   26200.24375863  .00000295  00000+0  50677-4 0  9996
2 40018  97.9100 332.6656 0067512  97.2069 263.6822 14.74255488648281
APRIZESAT 10            
1 40019U 14033K   26200.23543495  .00000299  00000+0  54693-4 0  9990
2 40019  97.9686 326.4865 0079054 170.4721 189.8008 14.70913685646961
TECHDEMOSAT-1 (TDS-1)   
1 40076U 14037H   26199.95843439  .00003711  00000+0  21033-3 0  9997
2 40076  98.3831 195.3335 0007294 147.4884 212.6795 15.13709005653038
TECHNOSAT               
1 42829U 17042E   26200.22845302  .00001265  00000+0  92789-4 0  9997
2 42829  97.4324 356.6765 0017040 350.2622   9.8272 15.05123325491522
FLYING LAPTOP           
1 42831U 17042G   26200.31234836  .00001751  00000+0  14004-3 0  9997
2 42831  97.4831 354.6403 0019475  19.4544 340.7420 15.01328506491274
HAWK-A                  
1 43765U 18099H   26200.10982917  .00003635  00000+0  14614-3 0  9994
2 43765  97.3891 251.9337 0035124 170.2748 189.9178 15.24994021417965
HAWK-B                  
1 43794U 18099AN  26200.10405368  .00003211  00000+0  13721-3 0  9994
2 43794  97.3942 251.2753 0031772 188.2158 171.8563 15.23140761417891
HAWK-C                  
1 43799U 18099AT  26200.14434448  .00004445  00000+0  15903-3 0  9998
2 43799  97.3867 253.0391 0040710 169.9471 190.2593 15.28527018418793
SALSAT                  
1 46495U 20068K   26200.25708758  .00003822  00000+0  13357-3 0  9992
2 46495  97.8864 205.2860 0009659 178.4698 181.6573 15.30204681320261
HAWK-2C                 
1 47502U 21006CT  26200.09793847  .00003515  00000+0  10567-3 0  9999
2 47502  97.2259 243.7759 0008677  89.8938 270.3300 15.35017206304398
HAWK-2A                 
1 47505U 21006CW  26200.10010843  .00003637  00000+0  10919-3 0  9998
2 47505  97.2301 244.4744 0008233  93.1893 267.0293 15.35038326304397
HAWK-2B                 
1 47508U 21006CZ  26200.09330657  .00004022  00000+0  11999-3 0  9995
2 47508  97.2171 242.7494 0008761  91.5884 268.6363 15.35168289304393
HAWK-3B                 
1 48931U 21059BE  26200.11056449  .00028486  00000+0  21799-3 0  9990
2 48931  97.6637  39.9003 0004756 185.2978 174.8235 15.72105827282865
HAWK-3C                 
1 48948U 21059BX  26200.11024720  .00030026  00000+0  22968-3 0  9997
2 48948  97.6752  45.6403 0005113 184.3804 175.7415 15.72102968282868
HAWK-3A                 
1 48957U 21059CG  26200.11013569  .00029478  00000+0  22552-3 0  9994
2 48957  97.6699  42.8193 0005025 186.5664 173.5534 15.72103294282864
HAWK-5C                 
1 52754U 22057Y   26199.96062004  .00010474  00000+0  17328-3 0  9992
2 52754  97.6628   1.7077 0002472 328.2356  31.8747 15.52407917231275
HAWK-5B                 
1 52756U 22057AA  26200.28273551  .00010321  00000+0  17076-3 0  9994
2 52756  97.6641   0.4057 0003133 312.9908  47.1081 15.52410362231329
